STARLINK A              
1 44235U 19029A   19209.56563168 -.00000286  00000-0 -48156-6 0  9998
2 44235  52.9983 238.3894 0001862 187.4956 172.6005 15.05483500 11149
STARLINK B              
1 44236U 19029B   19209.55593927 -.00000034  00000-0  17442-4 0  9996
2 44236  52.9973 237.9214 0001868 128.3415 231.7740 15.03345821  9220
STARLINK C              
1 44237U 19029C   19210.83251630  .00000205  00000-0  33254-4 0  9990
2 44237  52.9992 232.6154 0000748 162.2733 197.8281 15.05487983 10214
STARLINK D              
1 44238U 19029D   19209.74710130 -.00000155  00000-0  85126-5 0  9995
2 44238  52.9976 236.8142 0001374 165.4188 194.6839 15.05495540  8438
STARLINK E              
1 44239U 19029E   19209.55457943 -.00000249  00000-0  21229-5 0  9993
2 44239  53.0063 238.6629 0002235 190.0556 170.0388 15.05489616  9220
STARLINK F              
1 44240U 19029F   19209.56673226  .00000126  00000-0  27844-4 0  9991
2 44240  53.0051 236.5950 0001746 194.2358 165.8581 15.05499813  9255
STARLINK G              
1 44241U 19029G   19209.56121043  .00000028  00000-0  21115-4 0  9993
2 44241  53.0051 238.5193 0000630 243.6390 116.4533 15.05497725 10029
STARLINK H              
1 44242U 19029H   19210.53932209 -.00000191  00000-0  60923-5 0  9990
2 44242  52.9977 233.3149 0001365 149.4454 210.6613 15.05514957 10167
STARLINK J              
1 44243U 19029J   19210.44813038  .00000712  00000-0  26449-4 0  9991
2 44243  53.0021 220.1998 0006247 121.3442 238.8174 15.41432099 10335
STARLINK K              
1 44244U 19029K   19210.57803320 -.00000177  00000-0  70327-5 0  9990
2 44244  53.0011 233.5927 0000924 178.3893 181.7098 15.05477817 10140
STARLINK L              
1 44245U 19029L   19210.49394333  .00000104  00000-0  26369-4 0  9996
2 44245  53.0026 234.2621 0001196 199.1629 160.9314 15.05496958 10143
STARLINK M              
1 44246U 19029M   19209.89054756  .00003135  00000-0  40339-4 0  9991
2 44246  53.0006 218.1030 0027980  97.0942 263.3254 15.62314753 10078
STARLINK N              
1 44247U 19029N   19210.44636556  .00000097  00000-0  25825-4 0  9996
2 44247  53.0016 234.1673 0000797 189.4156 170.6817 15.05489473 10176
STARLINK P              
1 44248U 19029P   19210.34680617 -.00000293  00000-0 -98733-6 0  9993
2 44248  52.9978 234.0657 0001302 155.6485 204.4565 15.05516757 10088
STARLINK Q              
1 44249U 19029Q   19209.54838638  .00000013  00000-0  18426-4 0  9999
2 44249  53.0007 236.5673 0001395 286.7011  73.3826 15.10388141 10052
STARLINK R              
1 44250U 19029R   19209.57561069  .00000122  00000-0  27583-4 0  9990
2 44250  53.0004 238.1969 0000804 216.3963 143.6970 15.05489522  9087
STARLINK S              
1 44251U 19029S   19210.54263005  .00000044  00000-0  22277-4 0  9997
2 44251  52.9828 233.1856 0004633 275.6737  84.3722 15.05493816 10103
STARLINK T              
1 44252U 19029T   19209.48929162  .00000373  00000-0  44855-4 0  9993
2 44252  53.0002 237.7472 0000937 184.9763 175.1216 15.05496724  9069
STARLINK U              
1 44253U 19029U   19209.56341704 -.00000296  00000-0 -11339-5 0  9991
2 44253  53.0048 238.4764 0001915 184.9054 175.1915 15.05505891  9075
STARLINK V              
1 44254U 19029V   19209.57226917 -.00000204  00000-0  51650-5 0  9999
2 44254  52.9991 238.2676 0001413 199.1466 160.9469 15.05498858  9248
STARLINK W              
1 44255U 19029W   19210.45744408  .00000108  00000-0  26643-4 0  9994
2 44255  53.0023 233.9536 0001712 170.2101 189.8921 15.05521261 10107
STARLINK X              
1 44256U 19029X   19209.56893951  .00000079  00000-0  24653-4 0  9999
2 44256  52.9984 237.8842 0000939 179.2480 180.8509 15.05469408  9086
STARLINK Y              
1 44257U 19029Y   19209.52650259  .00001567  00000-0  70198-4 0  9996
2 44257  53.0015 230.7768 0000139  31.6648 328.4358 15.27525286 10111
STARLINK Z              
1 44258U 19029Z   19210.43641765 -.00000055  00000-0  15417-4 0  9996
2 44258  53.0000 234.3687 0000774 139.5288 220.5757 15.05514542 10135
STARLINK AA             
1 44259U 19029AA  19209.50526861  .00000615  00000-0  24858-4 0  9992
2 44259  53.0024 225.7185 0000279  18.6374 341.4640 15.40291138  9125
STARLINK AB             
1 44260U 19029AB  19210.43087496  .00000111  00000-0  26845-4 0  9993
2 44260  53.0095 232.9875 0001627 106.4405 253.6762 15.05475055 10214
STARLINK AC             
1 44261U 19029AC  19210.43751787 -.00000218  00000-0  41613-5 0  9995
2 44261  53.0001 234.3429 0001125 189.3823 170.7144 15.05497818 10157
STARLINK AD             
1 44262U 19029AD  19209.56012071  .00000056  00000-0  23080-4 0  9990
2 44262  53.0049 238.5395 0001384 195.7882 164.3063 15.05484725  9229
STARLINK AE             
1 44263U 19029AE  19210.45233244 -.00000145  00000-0  93349-5 0  9994
2 44263  53.0016 234.1534 0002249 183.4886 176.6086 15.04484845 10146
STARLINK AF             
1 44264U 19029AF  19209.58002599  .00000762  00000-0  71632-4 0  9998
2 44264  53.0009 238.1132 0001041 183.7998 176.2982 15.05485887 10007
STARLINK AG             
1 44265U 19029AG  19209.60214272  .00000180  00000-0  31562-4 0  9997
2 44265  52.9997 237.6540 0000839 187.1479 172.9497 15.05467074 10041
STARLINK AH             
1 44266U 19029AH  19210.20960237 -.00000291  00000-0 -81726-6 0  9999
2 44266  52.9946 234.7499 0001415 255.1343 104.9488 15.05494051 10066
STARLINK AJ             
1 44267U 19029AJ  19210.59243969 -.00000214  00000-0  45201-5 0  9999
2 44267  52.9996 233.1490 0001870 182.4827 177.6152 15.05487393 10167
STARLINK AK             
1 44268U 19029AK  19209.54904901 -.00000184  00000-0  65490-5 0  9991
2 44268  52.9976 238.0209 0001234 199.4761 160.6179 15.05496582  9087
STARLINK AL             
1 44269U 19029AL  19210.07237934 -.00000006  00000-0  18822-4 0  9996
2 44269  52.9981 235.5430 0002026 220.7034 139.3802 15.05499289 10123
STARLINK AM             
1 44270U 19029AM  19209.60325101  .00000150  00000-0  29508-4 0  9991
2 44270  52.9992 237.6313 0001118 191.6107 168.4855 15.05497873 10047
STARLINK AN             
1 44271U 19029AN  19209.60656704  .00000147  00000-0  29330-4 0  9997
2 44271  52.9985 237.5793 0001216 163.9573 196.1454 15.05501209 10041
STARLINK AP             
1 44272U 19029AP  19209.58114115 -.00000200  00000-0  54150-5 0  9990
2 44272  52.9992 238.0833 0001141 229.9537 130.1351 15.05475741  9077
STARLINK AQ             
1 44273U 19029AQ  19209.43268668  .00007759  00000-0  17544-3 0  9997
2 44273  53.0004 224.5400 0007501  98.9189 261.2665 15.44167825 10189
STARLINK AR             
1 44274U 19029AR  19209.86660708  .00000781  00000-0  72891-4 0  9991
2 44274  53.0007 235.9661 0001199 168.1932 191.9084 15.05488609  9298
STARLINK AS             
1 44275U 19029AS  19209.59998071  .00000186  00000-0  32029-4 0  9997
2 44275  52.9999 237.6958 0001811 158.3048 201.8017 15.05486252  9249
STARLINK AT             
1 44276U 19029AT  19209.58999312  .00000107  00000-0  26587-4 0  9991
2 44276  53.0022 237.9125 0001021 155.8559 204.2477 15.05477417  9239
STARLINK AU             
1 44277U 19029AU  19209.72828406 -.00000214  00000-0  44760-5 0  9997
2 44277  53.0027 237.2049 0000972 192.0707 168.0258 15.05497051  9268
STARLINK AV             
1 44278U 19029AV  19210.42260171  .00010559  00000-0  79410-4 0  9997
2 44278  53.0002 215.0710 0046880 114.7761 245.8144 15.71818795 10388
STARLINK AW             
1 44279U 19029AW  19210.46185455  .00000075  00000-0  24358-4 0  9996
2 44279  53.0005 233.2391 0000785 178.2649 181.8341 15.05489997 10128
STARLINK AX             
1 44280U 19029AX  19210.45190127  .00000125  00000-0  27817-4 0  9998
2 44280  53.0019 234.0141 0001474 158.7442 201.3607 15.05496715 10160
STARLINK AY             
1 44281U 19029AY  19210.46075845 -.00000054  00000-0  15446-4 0  9996
2 44281  53.0010 233.8743 0001151 187.1359 172.9613 15.05507133 10103
STARLINK AZ             
1 44282U 19029AZ  19210.06015209  .00002900  00000-0  13703-3 0  9995
2 44282  53.0273 230.5540 0001713  94.1552 265.9639 15.22654247 10143
STARLINK BA             
1 44283U 19029BA  19209.65304604 -.00000189  00000-0  62120-5 0  9996
2 44283  53.0023 237.6821 0001228 153.6702 206.4349 15.05490263  9239
STARLINK BB             
1 44284U 19029BB  19209.58777445  .00000195  00000-0  32640-4 0  9995
2 44284  53.0019 237.9528 0001487 170.0789 190.0229 15.05496366  9232
STARLINK BC             
1 44285U 19029BC  19209.71721627 -.00000038  00000-0  16582-4 0  9996
2 44285  53.0002 237.4172 0001563 203.9738 156.1177 15.05504259 11105
STARLINK BD             
1 44286U 19029BD  19209.58283756 -.00000041  00000-0  15711-4 0  9995
2 44286  53.0018 237.8331 0001558 157.6584 202.4473 15.08081482  9238
STARLINK BE             
1 44287U 19029BE  19209.57007215  .00000125  00000-0  27817-4 0  9991
2 44287  52.9989 238.3101 0001007 212.7585 147.3340 15.05495710  9238
STARLINK BF             
1 44288U 19029BF  19210.48619210 -.00000006  00000-0  18792-4 0  9999
2 44288  53.0055 234.4388 0001018 208.3108 151.7825 15.05484069 11227
STARLINK BG             
1 44289U 19029BG  19209.54707012  .00000870  00000-0  55567-4 0  9992
2 44289  53.0012 233.7925 0000366 329.4111  30.6862 15.19378988 11126
STARLINK BH             
1 44290U 19029BH  19209.55787611  .00000109  00000-0  26664-4 0  9999
2 44290  53.0052 238.5064 0001422 215.5125 144.5768 15.05499940  9228
STARLINK BJ             
1 44291U 19029BJ  19209.68623903  .00000023  00000-0  20734-4 0  9994
2 44291  53.0061 238.0849 0001242 252.8587 107.2265 15.05510146 11099
STARLINK BK             
1 44292U 19029BK  19209.68401473 -.00000258  00000-0  14577-5 0  9991
2 44292  53.0059 238.1251 0001697 221.8838 138.2020 15.05499093 11094
STARLINK BL             
1 44293U 19029BL  19210.22617996  .00000098  00000-0  25919-4 0  9995
2 44293  53.0053 235.5605 0001315 221.5756 138.5132 15.05500147 11175
STARLINK BM             
1 44294U 19029BM  19209.60880133  .00000097  00000-0  25841-4 0  9994
2 44294  52.9982 237.5083 0001194 165.2242 194.8781 15.05496909  9257
FALCON 9 DEB            
1 44295U 19029BN  19209.67763040  .00000508  00000-0  21126-4 0  9998
2 44295  53.0014 223.9242 0011171 104.0175 256.2072 15.42410197 11350
FALCON 9 DEB            
1 44296U 19029BP  19209.67541574  .00000535  00000-0  21720-4 0  9995
2 44296  53.0013 223.9099 0010872 117.1969 243.0144 15.42466271 11351
FALCON 9 DEB            
1 44297U 19029BQ  19209.69330492  .00000694  00000-0  24464-4 0  9997
2 44297  53.0019 223.3149 0006411  95.5475 264.6260 15.43576163 11365
FALCON 9 DEB            
1 44298U 19029BR  19210.53270383  .00000787  00000-0  26437-4 0  9990
2 44298  53.0019 219.2960 0005915 121.2861 238.8723 15.43636207 11492
